SICG20 FCBB 030900
AAXX 03094
64400 42460 71004 10285 20245 30113 40133 8493/
    333 59005 83813 81930 87363 94966 95836=
AAXX 03093
64401 42460 60000 10266 20225 39760 40129 85230
    333 59001 85816 83360 94919 95839=
64402 41460 82604 10226 20217 39553 40128 76164 8592/
    333 59008 84610 81926 88460 94942 95832=
64403 42460 53602 10262 20237 39/// 40/// 85230
     333 5//// 85816 83364 94919 95839=
64405 42460 62604 10253 20222 39530 40/// 82170
    333 59007 82812 86360=
64406 42460 71802 10260 20228 39/// 40/// 8417/
     333 5//// 84813 87362 94919 95839=
AAXX 03094
64450 42460 71402 10245 20215 39780 40132 8387/
    333 59006 81816 83623 87463 94908 95838=
AAXX 03093
64452 42460 71402 10285 20228 39/// 40/// 8327/
    333 5//// 83817 87362 94913 95833=
64453 42960 53204 10235 20206 39/// 48/// 83032
    333 5//// 83360 85076=
64454 NIL=
64456 42460 52204 10264 20229 39/// 40/// 84230
    333 5//// 84810 94919 95839=
64458 42460 60000 10257 20211 39744 40138 86280
    333 59022 86816 84362 94919 95879=
64459 42460 72202 10255 20218 39782 40/// 8357/
    333 59011 83613 87360=
64460 NIL=
64462 41106 81402 10205 20198 74644 886//
    333 88703==
64463 NIL=
AAXX 03094
64461 42460 52804 10264 20232 39766 40136 83430
    333 59006 83613 83360=