SANA14 KAWN 072100 RRA
METAR KEGI 072056Z AUTO 06008KT 10SM CLR 13/M01 A3020 RMK AO2 SLP228
      T01341010 56014 $=
METAR KNHK 072052Z 30018G26KT 10SM FEW045 01/M11 A3014 RMK AO2 PK WND
      31026/2051 SLP207 T00061106 53028 $=
METAR KNIP 072053Z 36006KT 10SM FEW010 FEW250 17/M01 A3018 RMK AO2
      SLP216 FU FEW010 T01721006 55001 $=
METAR KNQX 072053Z 34009KT 10SM SCT020 BKN070 BKN220 27/22 A3008 RMK
      AO2 SLP186 T02670222 55007 $=
METAR KNRB 072052Z 02010KT 10SM CLR 16/02 A3018 RMK AO2 SLP220 T01560022
      53001=
METAR KNSI 072053Z AUTO 31019G25KT 10SM OVC013 13/09 A2992 RMK AO2
      PK WND 32026/1956 SLP128 T01330094 58020 PWINO $=
METAR KNTD 072052Z 24004KT 10SM OVC012 13/09 A2994 RMK AO2 SLP138 T01330089
      58017 CHINO N VISNO N $=
METAR KNZY 072052Z 19006KT 7SM BKN015 14/11 A2994 RMK AO2 SLP137 T01440111
      58015=
METAR KPAM 072056Z AUTO 03009KT 10SM CLR 15/01 A3017 RMK AO2 SLP220
      T01520013 55010 VISNO RWY14 $=
METAR KSKF 072056Z AUTO 08003KT 10SM OVC016 07/M01 A3009 RMK AO2 SLP193
      T00651012 57031 $=
METAR KTBN 072056Z AUTO 09005KT 10SM CLR M03/M14 A3021 RMK AO2 SLP252
      T10351137 57027=
METAR KTIK 072056Z AUTO 17009KT 10SM CLR 03/M07 A3002 RMK AO2 SLP188
      T00301075 57041=
METAR KVAD 072056Z AUTO 36008KT 10SM CLR 14/M04 A3019 RMK AO2 SLP226
      T01371036 55008 $=
METAR KVPS 072056Z AUTO 04007KT 10SM CLR 14/00 A3018 RMK AO2 SLP227
      T01380004 56010 $=
METAR KWRB 072056Z 34004KT 10SM BKN160 10/M06 A3023 RMK AO2A SLP241
      T00991065 55004=

