SAPR01 SPIM 072100
METAR SPJC 072100Z 17012KT CAVOK 24/18 Q1012 NOSIG RMK PP000=

