SAZZ40 KAWN 072100 RRD
METAR ETAD 072056Z AUTO 21005KT 9999 -SN SCT006 OVC010 01/01 A2985
      RMK AO2 RAB21E35SNB35 CIG 005 RWY23 CIG 006 RWY24 SLP118
      P0001 60001 T00060005 57015 FZRANO TSNO $=
METAR KBAD 072056Z AUTO 09003KT 10SM CLR 09/M04 A3021 RMK AO2 SLP234
      T00911045 57034=
METAR KBUR 072053Z 12011KT 5SM HZ CLR 16/08 A2989 RMK AO2 SLP112 T01610078
      58025=
METAR KCOF 072056Z AUTO 02014KT 10SM CLR 21/17 A3012 RMK AO2 SLP204
      T02080166 53006 $=
METAR KEGI 072056Z AUTO 06008KT 10SM CLR 13/M01 A3020 RMK AO2 SLP228
      T01341010 56014 $=
METAR KGSB 072056Z 31015G18KT 10SM FEW240 06/M12 A3016 RMK AO2A SLP217
      T00641122 52017 RVRNO VISNO RWY26 $=
METAR KHST 072056Z AUTO 11003KT 10SM SCT034 BKN090 BKN110 24/21 A3007
      RMK AO2 PK WND 28026/1957 RAB1956E37 TSE22 SLP186 P0083
      60083 T02390210 53002=
METAR KLSF 072056Z AUTO 30005KT 10SM CLR 10/M04 A3023 RMK AO2 SLP243
      T01011036 55011 $=
METAR KMMT 072056Z AUTO 29005KT 10SM CLR 10/M06 A3018 RMK AO2 SLP224
      T01041056 53005 $=
METAR KNRS 072053Z VRB05KT 8SM BKN016 BKN250 14/11 A2995 RMK SLP143
      T01400110 56010=
METAR KSVN 072056Z AUTO 33008KT 10SM CLR 14/M01 A3016 RMK AO2 SLP216
      T01431006 55004 $=
METAR KVAD 072056Z AUTO 36008KT 10SM CLR 14/M04 A3019 RMK AO2 SLP226
      T01371036 55008 $=
METAR KVPS 072056Z AUTO 04007KT 10SM CLR 14/00 A3018 RMK AO2 SLP227
      T01380004 56010 $=
METAR ORSU 072100Z 30007KT 7000 NSC 02/02 Q1023=

