SAUS14 KAWN 072100 RRU
METAR K0CO 072055Z AUTO 29042G58KT CLR M02/M15 A2979 RMK AO2 PWINO=
METAR K0E0 072055Z AUTO 25014G18KT 10SM CLR 15/M05 A2994 RMK AO2 T01541048
      TSNO=
METAR K2V5 072055Z AUTO 10006KT 10SM CLR 02/M04 A2963 RMK AO2=
METAR K4V0 072055Z AUTO 00000KT 10SM CLR 04/M02 A2975 RMK AO2 T00411017=
METAR KAAT 072055Z AUTO 26016G27KT 10SM SCT030 BKN055 OVC065 06/01
      A2975 RMK AO2 PK WND 24032/2003 SLP074 T00610006 56012=
METAR KAMA 072053Z 17020KT 10SM CLR 14/M07 A2975 RMK AO2 PK WND 18026/2053
      SLP077 T01441067 56037=
METAR KARM 072055Z AUTO 07010G14KT 10SM OVC012 09/06 A3014 RMK AO2
      T00920057=
METAR KENV 072056Z AUTO RMK AO2 SLPNO 6//// PWINO FZRANO $=
METAR KGRK 072056Z AUTO 14004KT 7SM OVC016 05/M02 A3009 RMK AO2 SLP199
      T00531025 57036=
METAR KILE 072056Z AUTO 14008KT 10SM OVC019 06/M02 A3013 RMK AO2 SLP204
      T00561017 56036=
METAR KJAC 072056Z 22017G20KT 1SM -SN BR BKN017 OVC024 01/M02 A2959
      RMK AO2 PK WND 22028/2010 RAB02E11SNB34 SLP032 P0000 60000
      T00061017 55011 $=
METAR KJWY 072055Z AUTO 09007KT 10SM OVC036 07/M02 A3013 RMK AO2 T00651022=
METAR KL08 072055Z AUTO 14004KT 10SM CLR 20/M02 A2984 RMK AO2=
METAR KLGD 072056Z AUTO 28025G34KT 10SM BKN060 08/M01 A2946 RMK AO2
      PK WND 27034/2051 SLP982 T00831011 53005=
METAR KLHB 072055Z AUTO 15005KT 10SM OVC025 A3016 RMK AO2=
METAR KLIC 072055Z AUTO 13004KT 10SM CLR 04/M04 A2962 RMK AO2 SLP058
      T00441039 56026=
METAR KLNC 072055Z AUTO 15007KT 10SM OVC039 07/M04 A3015 RMK AO2 T00731037=
METAR KLUD 072055Z AUTO 15011KT 10SM BKN032 06/M05 A3009 RMK AO2 T00591047=
METAR KWMC 072056Z AUTO 22013G23KT 10SM CLR 10/00 A2973 RMK AO2 SLP057
      T01000000 58012=

