SAUS14 KAWN 072100 RRV
METAR K0F2 072055Z AUTO 17009KT 10SM CLR 06/M05 A3007 RMK AO2 T00561046=
METAR K3N8 072055Z AUTO 15011KT 10SM SCT034 M19/M24 A2991 RMK AO2 T11871240=
METAR K4S1 072055Z AUTO 29005KT 5SM BR SCT024 SCT032 BKN041 08/06 A2993
      RMK AO2=
METAR KATS 072055Z AUTO 14010KT 10SM CLR 14/M08 A2987 RMK AO2=
METAR KDIJ 072056Z AUTO 20016KT 1 1/2SM -SN BR SCT011 BKN016 OVC029
      01/M01 A2960 RMK AO2 PK WND 23027/2007 VIS 1V2 1/2
      UPE20SNB20 SLP030 P0000 60000 T00061011 58007=
METAR KDLF 072056Z AUTO 14012KT 10SM FEW036 14/M01 A3002 RMK AO2 SLP168
      T01371015 57044 $=
METAR KDTA 072100Z AUTO 17024G32KT 10SM CLR 12/01 A2975 RMK AO1=
METAR KEUL 072056Z AUTO 22010KT 10SM OVC070 11/02 A2960 RMK AO2 SLP027
      T01060017 58021=
METAR KF05 072055Z AUTO 17011KT 10SM CLR 05/M09 A3003 RMK AO2 T00481089=
METAR KF44 072055Z AUTO 11006KT 10SM OVC042 09/M02 A3014 RMK AO2=
METAR KGXY 072056Z AUTO 00000KT 9SM CLR M03/M08 A2958 RMK AO2 SLP082
      P0002 60002 T10281083 58034 FZRANO=
METAR KHDN 072056Z AUTO 14004KT 10SM CLR 05/M02 A2975 RMK AO2 SLP063
      T00501022 57030=
METAR KHHF 072055Z AUTO 17013G19KT 10SM CLR 03/M11 A2987 RMK AO2 T00321113=
METAR KHVE 072055Z AUTO 01008KT 10SM CLR 10/M01 A2982 RMK AO2=
METAR KKLS 072056Z AUTO 31010KT 10SM -RA BKN033 BKN047 BKN055 07/03
      A2978 RMK AO2 RAB49 SLP089 P0000 60000 T00720028 51060=
METAR KLPC 072056Z AUTO 31008KT 10SM FEW016 OVC025 13/10 A2996 RMK
      AO2 SLP145 T01330100 58019=
METAR KLXY 072055Z AUTO 11007KT 10SM OVC046 09/M01 A3014 RMK AO2 T00941013=
METAR KMKN 072055Z AUTO 16011KT 10SM OVC022 07/M03 A3007 RMK AO2 T00701026=
METAR KMNZ 072055Z AUTO 17008KT 10SM OVC016 06/M03 A3010 RMK AO2 T00621032=
METAR KSTK 072055Z AUTO 19005KT 10SM CLR M02/M07 A2959 RMK AO2=

