SAXX60 KWBC 072100 CCA
METAR
PHBK 072051Z AUTO 30004KT 9SM CLR 25/19 A2999 RMK AO2 SLP156
     T02500194 50003=
KBAN 072052Z AUTO 24011G15KT 10SM SCT041 BKN065 04/M05 A2985 RMK
     AO2 PK WND 23028/2020 RAB22E24SNB24E40 SLP087 P0000 60000
     T00391050 58010 $=

