SAGC31 MWCR 072100
METAR MWCR 072100Z 07010KT 9999 FEW020 29/21 Q1016=
METAR MWCB 072100Z 04005KT 030V150 9999 FEW018 28/23 Q1016=

