SAPQ50 KWBC 072100
METAR
PTRO 072054Z 02003KT 13SM SCT014CB BKN100 BKN280 23/23 A2984 RMK
     CB ALQDS=
PKMR 072054Z 06007KT 15SM FEW015 SCT050 BKN300 28/24 A2987 RMK
     SLP117 60017 8/801 T02840244 52017=
PGSN 072054Z 09014KT 10SM SCT026 26/21 A2994 RMK AO2 SLP160
     T02610211 51007 $=
PTKK 072050Z VRB05KT 15SM FEW014 BKN280 27/25 A2985 RMK SLP111
     8/101 T02670254 52012=

