SAUS80 KWBC 072100 RRD
METAR
PADK 072056Z AUTO 33003KT 10SM SCT020 BKN027 02/01 A2928 RMK AO2
     SLP916 T00170011 52018 FZRANO=
PAMC 072053Z AUTO 29003KT 10SM CLR M32/M35 A3002 RMK AO2 SLP182
     T13171350 53002 TSNO=
KDSM 072054Z 13011KT 10SM FEW050 FEW200 BKN250 M11/M17 A3017 RMK
     AO2 SLP240 T11111172 56029=
KFWA 072054Z 27009KT 10SM FEW027 M07/M13 A3032 RMK AO2 SLP283
     T10721133 53013=
KNUI 072053Z AUTO 30016G27KT 10SM CLR 02/M11 A3014 RMK AO2 PK WND
     30027/2047 SLP205 T00221106 53028=
KALK 072056Z AUTO 26012G22KT 10SM CLR 21/M08 A2999 RMK AO2 SLP087
     T02061078 58025=
KGNR 072056Z AUTO 34015G22KT M07/M09 A2956 RMK AO1 SLP035 60002
     T10671094 55002=
KP53 072056Z AUTO 26006KT M07/M13 A3021 RMK AO1 SLP241 P0001 60012
     T10671133 53007=
KD07 072056Z AUTO 14013KT M10/M13 A2940 RMK AO1 SLP015 T11001128
     56048=

