SAUS70 KWBC 072100 RRF
METAR
KAOH 072053Z AUTO 25011KT 10SM OVC026 M07/M13 A3029 RMK AO2 SLP277
     60000 T10671128 53017=
KARB 072053Z 30012KT 10SM CLR M06/M13 A3024 RMK AO2 SLP256
     T10611133 53020=
KAUG 072053Z AUTO 33015G20KT 3/4SM BR FEW016 OVC023 M03/M06 A2963
     RMK AO2 SLP040 T10331056 53018 PWINO FZRANO $=
KBAF 072053Z 31012KT 10SM BKN038 OVC050 M01/M07 A2981 RMK AO2 PK
     WND 30026/2026 SNB24E37 SLP101 P0000 60000 T10111072
     53035=
KBFD 072053Z AUTO 28010G19KT 3/4SM -SN VV015 M08/M13 A3000 RMK AO2
     SLP188 P0000 60000 T10781128 53023=
KBGM 072053Z 31010G19KT 10SM FEW023 BKN027 OVC037 M08/M12 A2990
     RMK AO2 SNE24 SLP149 P0000 60000 T10781117 53030=
KBIS 072052Z 13018G24KT 8SM FEW008 OVC110 M13/M16 A2952 RMK AO2
     SNE33 PRESFR SLP044 P0002 60003 T11331161 58063=
KBMG 072053Z 31004KT 10SM CLR M07/M16 A3035 RMK AO2 SLP295
     T10721156 53002=
KBTL 072053Z 21007KT 8SM -SN FEW019 BKN045 OVC050 M07/M11 A3027
     RMK AO2 SNB16 SLP266 P0000 60000 T10671106 53017=
KBVY 072053Z 29012KT 1 1/4SM -SN BR OVC024 M02/M03 A2970 RMK AO2
     SLP055 P0000 60001 T10171033 53034=
KFME 072055Z AUTO 32011G23KT 290V350 10SM CLR M02/M10 A3018 RMK
     AO1=
KTZR 072050Z 22009KT 10SM OVC028 M07/M12 A3033=
PAKN 072054Z 36006KT 10SM CLR M19/M23 A2966 RMK AO2 SLP046
     T11891233 56016=
PAWI 072053Z AUTO 36003KT 10SM OVC090 M21/M23 A3052 RMK AO2 SLP335
     T12061228 TSNO $=
KABR 072053Z AUTO 15022G28KT 10SM BKN060 OVC075 M09/M15 A2971 RMK
     AO2 PK WND 16029/2011 SLP094 T10941150 58052=
KACK 072053Z 32019G31KT 10SM BKN019 OVC025 01/M03 A2970 RMK AO2 PK
     WND 32031/2021 SNE14 SLP057 P0000 60000 T00111033 53058=
KAMW 072053Z AUTO 15013KT 10SM OVC050 M12/M18 A3018 RMK AO2 SLP239
     T11171178 56029=
KATY 072053Z AUTO 16018G27KT 10SM OVC065 M12/M17 A2978 RMK AO2 PK
     WND 15033/2023 SLP132 T11171167 56042=
KAXN 072053Z AUTO 12012KT 10SM FEW041 OVC100 M22/M26 A2996 RMK AO2
     SLP197 T12171256 56035=
KBDE 072053Z AUTO 13009KT 10SM CLR M21/M26 A2996 RMK AO2 SLP185
     T12061256 56039=
KBGR 072053Z 34016G25KT 3/4SM R15/P6000FT -SN BR FEW010 OVC019
     M03/M05 A2957 RMK AO2 PK WND 33026/2028 SFC VIS 1 SLP016
     P0001 60003 T10331050 51009=
KBIV 072053Z AUTO 14003KT 10SM -SN BKN037 OVC044 M07/M12 A3028 RMK
     AO2 SNB50 SLP267 P0000 60000 T10671122 53020=
KBRD 072053Z AUTO 15009KT 10SM CLR M18/M25 A3004 RMK AO2 SLP216
     60000 T11781250 56032 TSNO=
KBRL 072053Z AUTO 14003KT 10SM OVC070 M14/M18 A3030 RMK AO2 SLP278
     T11391183 56020=
KCDW 072053Z AUTO 31012G21KT 280V340 10SM SCT050 BKN060 01/M11
     A2995 RMK AO2 PRESRR SLP148 T00061106 53036=
KDEH 072055Z AUTO 15005KT 10SM FEW075 M16/M19 A3019 RMK AO2=
KLUM 072055Z AUTO 11006KT 10SM M17/M22 A3021 RMK AO2 T11711223=
KMRJ 072055Z AUTO 00000KT 10SM CLR M14/M19 A3024 RMK AO2=
KOXV 072055Z AUTO 14007KT 10SM OVC050 M11/M18 A3021 RMK AO2=
KAFW 072053Z 15009KT 10SM FEW040 SCT250 07/M03 A3010 RMK AO2
     SLP203 T00721033 56050=
KAKO 072053Z AUTO 00000KT 10SM CLR 04/M06 A2958 RMK AO2 SLP049
     T00391061 56024=
KPSX 072053Z AUTO 05013KT 10SM OVC012 12/08 A3012 RMK AO2 SLP197
     T01170083 56027=
KPUC 072053Z AUTO 11004KT 10SM CLR 05/M02 A2981 RMK AO2 SLP120
     T00501017 56029=
KPUW 072053Z AUTO 24038G49KT 10SM BKN025 OVC035 04/00 A2935 RMK
     AO2 PK WND 25049/2052 RAE11 SLP952 P0001 60015 T00390000
     58002=
KRAL 072053Z VRB04KT 9SM CLR 18/04 A2989 RMK AO2 SLP110 T01830044
     58023=
KRBD 072053Z 15010KT 10SM OVC038 07/M04 A3011 RMK AO2 SLP200
     T00671044 56043=

